#dP2022  4 11  0  0  0.00000000      96 __u+U ITR14 FIT  IAC
## 2205  86400.00000000   900.00000000 59680 0.0000000000000
+  127   C01C02C03C04C05C06C07C08C09C10C11C12C13C14C16C19C20
+        C21C22C23C24C25C26C27C28C29C30C32C33C34C35C36C37C38
+        C39C40C41C42C43C44C45C46C60E01E02E03E04E05E07E08E09
+        E10E11E12E13E14E15E18E19E21E24E25E26E27E30E31E33E34
+        E36G01G02G03G04G05G06G07G08G09G10G11G12G13G14G15G16
+        G17G18G19G20G21G22G23G24G25G26G27G28G29G30G31G32J02
+        J03J07R01R02R03R04R05R06R07R08R09R10R11R12R13R14R15
+        R17R18R19R20R21R22R23R24  0  0  0  0  0  0  0  0  0
++        15 14 16 15 15  9  9  9  9  8  9  8  9  9  9  7  7
++         7  7  7  7  7  7  7  7  7  7  8  8  7  7  7  7  8
++         8  8  8  7  8  7  7  7 15  4  4  4  5  4  5  4  4
++         5  4  5  4  5  4  4  5  4  4  4  4  5  5  5  5  4
++         4  4  3  4  4  4  4  4  4  3  4  4  4  4  4  4  4
++         4  4  4  4  5  4  4  5  4  4  4  5  4  4  4  4  8
++         9 15  7  6  6  6  6 13  6  6  6 13  8  6  7  6  6
++         6  6  7  8  6  8 13  6  0  0  0  0  0  0  0  0  0
%c M  cc GPS ccc cccc cccc cccc cccc ccccc ccccc ccccc ccccc
%c cc cc ccc ccc cccc cccc cccc cccc ccccc ccccc ccccc ccccc
%f  0.0000000  0.000000000  0.00000000000  0.000000000000000
%f  0.0000000  0.000000000  0.00000000000  0.000000000000000
%i    0    0    0    0      0      0      0      0         0
%i    0    0    0    0      0      0      0      0         0
/* INFORMATION & ANALYSIS CENTER (IAC)            RAPID DATA
/* S/V CLOCKS ARE ALIGNED TO GNSS TIME                      
/* G:C1WC2W R:C1PC2P E:C1XC5X C:C2IC6I J:C1CC2S             
/* PCV:IGS14_2196 OL/AL:FES2004  NONE     YN ORB:CoN CLK:CoN
*  2022 04 11 19  0  0.00000000
PC01 -34359.675850  24423.551607   -132.990831     72.373316
PC02   4423.162640  41973.474166   1107.252961    136.757192
PC03 -14723.520057  39552.869689    318.889159 999999.999999
PC04 -39612.647268  14423.897770   -484.174156     82.153858
PC05  21896.244754  36088.295287    915.604843    149.388981
PC06  -1579.535423  31205.561047  28423.746409   -223.222543
PC07 -16811.050541  27611.734501 -27147.215283     19.182733
PC08 -13979.646587  39694.870337    750.363635    252.949395
PC09   7035.171122  36089.180200  21419.682501   -687.472372
PC10  -8360.292964  28063.687878 -30220.204644    136.523285
PC11  20895.514954  15987.414936   9326.227171    285.687894
PC12  12503.114079  23520.341855  -8275.691769   -629.108251
PC13  -6932.392993  40247.115887  10026.314853    -63.509319
PC14  23542.228649   5291.265064  13993.845656    456.962608
PC16  -3154.390805  29659.330075  30068.965420    117.634076
PC19 -27346.023354   1541.120457  -5377.063712    879.049088
PC20 -17565.707291 -10052.144420 -19206.817606   -874.547921
PC21  -3516.754185  16354.549457  22363.704540    -94.864825
PC22 -21743.228350  12663.519461  12108.875877   -966.839461
PC23  15809.245221 -19900.188362 -11525.992284   -933.805101
PC24   8035.389170  18617.863950 -19173.436408   -952.631188
PC25  17227.733923  -2405.024440 -21833.268034   -752.470698
PC26  -3977.702216  26866.968009  -6342.617167    753.180259
PC27  -4878.993893 -22605.314282  15583.055949    706.287192
PC28  11238.998961 -11267.979506  22923.203571     54.142918
PC29 -21414.244089  -6359.439375 -16730.103560    540.017500
PC30 -18787.811748 -20614.197180   -144.835302    496.769367
PC32   3405.263108 -16371.433313 -22317.122102   -963.650208
PC33  27302.113778  -1589.971899   5510.242970   -968.738525
PC34  19224.254621  20219.411078   1087.886231   -427.809224
PC35 -11598.786931  10952.605326 -22907.172286    224.243134
PC36 -17168.739754   1395.646645  21974.641845   -964.432262
PC37   5425.917944 -26875.795872   5267.439194   -925.318340
PC38 -17346.560683  37798.047135  -6449.382937    224.448819
PC39  -7788.491384  25338.256324  32851.791610     34.939392
PC40 -23058.396866  21399.619954 -28179.320247    260.014590
PC41  22027.192581 -12516.792593 -11640.036025   -968.126187
PC42  16597.816477  10676.146304  19770.937528   -949.531659
PC43  21614.287157   7063.909115  16183.862362   -930.562236
PC44   5432.232755  22459.364331 -15686.474816    624.575404
PC45 -15644.995076  20113.163455  11351.404120    728.736471
PC46  -8880.645069 -17392.500354  19946.931484   -266.619379
PC60   7283.931243  41530.915279   -920.160063     -0.573422
PE01  -5258.040902 -16852.668656  23756.445695   -614.470561
PE02   5443.002971  16734.237657 -23804.687329    292.186959
PE03  17248.829601  17814.138125  16159.381385   -546.970885
PE04 -28270.360328  -8715.841566   1031.665582  -1004.405171
PE05  -4122.541242  16604.327807  24162.904679   -191.780137
PE07  22781.396923  -5748.361923 -17987.892261   -657.607986
PE08  28339.948276   8417.630994  -1332.633926   -510.651789
PE09 -22617.800590   5856.404456  18191.345441   -480.852205
PE10 -16273.778614    207.710708 -24730.921477   -506.091419
PE11 -13177.224240  12031.959757 -23630.640646   3985.883758
PE12 -16741.801685 -11021.759057 -21773.060482   4667.828187
PE13  13368.994916 -11275.536817  23881.452025    427.952157
PE14  16820.979042  -5275.044419  15434.740869  -1810.566884
PE15  16696.927635  11193.786080  21737.057410    752.273447
PE18 -22257.965395   8376.461926 -22177.459276  -1576.319183
PE19 -14978.062049 -18211.399756 -17881.136260  -2848.688064
PE21  12369.590776 -23203.677645  13592.318611   -727.877993
PE24 -24323.986737  15697.059665   6094.606073   -555.550262
PE25 -12584.490808  23204.486396 -13384.519622   -570.049374
PE26   1725.700658 -27394.406870  11074.503517  -1018.773471
PE27  23994.753874 -16618.258497  -4965.659185   -273.989269
PE30  20915.045802    750.742304 -20952.445493   -422.730452
PE31 -21397.698931    300.995016  20450.115508   -494.918391
PE33 -10160.402937 -26951.493807  -6784.431557   -457.707724
PE34  10315.256028  26853.430748   6972.732775   -511.544862
PE36  -2205.107902  26985.993274 -11977.611449   -358.269163
PG01  13214.606914  -8985.789686  20849.568061    387.327295
PG02 -13997.966938 -14110.837680 -16891.094107   -653.051645
PG03  22974.405739 -12641.676691   3705.805951   -202.560238
PG04  20209.549468  -2843.129080 -17034.124999   -176.718903
PG05 -20627.464525    556.926222 -16969.404007    -77.947901
PG06  -5682.765485 -25214.065266  -5863.337342    263.193913
PG07   6147.921587 -22989.423278 -10866.623900    319.862095
PG08  24770.775663   4397.636251   9021.531963    -63.531754
PG09  10685.197068 -11754.205043 -21354.771336   -344.352946
PG10  -3423.307642  18156.366476  19115.860173   -375.999255
PG11 -12840.373805 -14717.810737 -18011.212005    -42.079768
PG12 -24035.005253   8667.786104   6741.851730   -198.843562
PG13 -23035.696649 -13146.466132   2470.769126    292.447277
PG14   5170.217165 -18554.782166  18246.938436   -101.744813
PG15 -25001.673008  -1317.348871   8916.238154    -69.709851
PG16  18016.900220   5094.115524 -19287.241656   -490.621109
PG17  -6175.815424 -18017.642060  18920.797348    599.079581
PG18  -6646.140413  22901.187927 -11588.968848    197.954969
PG19 -13234.033478 -18736.430681  13296.225601    143.075186
PG20 -14156.332646  -7708.040255 -21074.104911    515.872099
PG21  15918.085840   3125.184681  21779.177169    160.347968
PG22  15398.108864  18550.534437  11757.771390    241.801270
PG23 -13884.689857  19603.700322  11213.478537    -14.184654
PG24 -15015.161600   4708.266216  21073.254145    257.854002
PG25 -18851.201599  17754.839218  -5486.757106    310.647388
PG26   8449.142223  13336.455879 -21433.360826    197.868158
PG27  23363.026793  12922.248908  -2275.594093    180.559524
PG28  -3381.600347 -15369.319755  21938.259815    372.257713
PG29 -12441.564023   9453.412124 -21538.656022   -501.945905
PG30    543.307646 -26261.518379  -2809.879765   -523.296975
PG31   7248.832422  23887.327642  -8481.244961   -172.984692
PG32   9792.645662  17963.157366  17178.743275   -103.349902
PJ02 -34844.556397  23724.348361   3672.192430     -2.645471
PJ03 -20934.615729  21408.632945 -25106.333598     -1.483397
PJ07 -25398.367559  33660.071006     39.968321     -0.004598
PR01  10767.083244 -10257.381565 -20713.191059      7.733048
PR02 -10697.720466  -9873.168350 -20881.125723    515.239405
PR03 -23871.615227  -3725.812736  -8048.624228     54.742154
PR04 -23474.351230   4230.957394   9063.686006    136.225723
PR05 -10183.429826   9886.895950  21205.883897     90.976075
PR06  12101.768790   9452.689371  20370.496347    -42.581955
PR07  24175.986968   3479.078748   7477.192099     33.740319
PR08  23453.221384  -4339.440512  -9013.927956    -64.564512
PR09    759.808983  17634.847937 -18432.569264     49.249977
PR10  10689.581320   3358.132812 -22930.299860    -81.414490
PR11  15563.724970 -14030.530938 -14528.859327     41.422730
PR12  10985.837431 -22786.149935   3383.683917     17.878037
PR13    313.374463 -18264.225655  17785.839090    -20.731906
PR14 -11444.030502  -2067.516008  22711.430688     76.415602
PR15 -15821.458352  14438.767631  13867.706441     96.901303
PR17 -15664.382917 -14248.372440 -14240.399841    516.719460
PR18 -11013.837999   1420.860728 -22945.832665    113.241582
PR19  -1882.514084  15498.601219 -20175.670700   -184.999133
PR20  10499.034087  23026.910293  -3391.223472    -68.441873
PR21  15466.408249  13141.028372  15437.628558   -292.548362
PR22  10634.062550  -2052.241289  23086.752058   -176.282706
PR23  -2349.758558 -19286.120337  16513.080436    -36.799845
PR24 -11295.791946 -22717.508812   2694.475959     88.621275
EOF
